{
    "links": {
        "self": "http://www.neowsapp.com/rest/v1/neo/3943339?api_key=iIulBulltgU6a56xZRHN4H3l9WmuAYTsLGpBGhQ2"
    },
    "id": "3943339",
    "neo_reference_id": "3943339",
    "name": "(2019 YO1)",
    "designation": "2019 YO1",
    "nasa_jpl_url": "http://ssd.jpl.nasa.gov/sbdb.cgi?sstr=3943339",
    "absolute_magnitude_h": 25.0,
    "estimated_diameter": {
        "kilometers": {
            "estimated_diameter_min": 0.02658,
            "estimated_diameter_max": 0.0594346868
        },
        "meters": {
            "estimated_diameter_min": 26.58,
            "estimated_diameter_max": 59.4346868419
        },
        "miles": {
            "estimated_diameter_min": 0.0165160412,
            "estimated_diameter_max": 0.0369309908
        },
        "feet": {
            "estimated_diameter_min": 87.2047272,
            "estimated_diameter_max": 194.9956979785
        }
    },
    "is_potentially_hazardous_asteroid": false,
    "close_approach_data": [
        {
            "close_approach_date": "2019-12-17",
            "close_approach_date_full": "2019-Dec-17 08:17",
            "epoch_date_close_approach": 1576570620000,
            "relative_velocity": {
                "kilometers_per_second": "15.1576830828",
                "kilometers_per_hour": "54567.659098179",
                "miles_per_hour": "33906.2212879768"
            },
            "miss_distance": {
                "astronomical": "0.1009755791",
                "lunar": "39.2795002699",
                "kilometers": "15105731.555376517",
                "miles": "9386266.3415572546"
            },
            "orbiting_body": "Earth"
        }
    ],
    "orbital_data": {
        "orbit_id": "1",
        "orbit_determination_date": "2019-12-21 11:12:45",
        "first_observation_date": "2019-12-19",
        "last_observation_date": "2019-12-21",
        "data_arc_in_days": 2,
        "observations_used": 14,
        "orbit_uncertainty": "9",
        "minimum_orbit_intersection": ".0923898",
        "jupiter_tisserand_invariant": "4.415",
        "epoch_osculation": "2458837.5",
        "eccentricity": ".2810795170884774",
        "semi_major_axis": "1.485642418743224",
        "inclination": "27.1374116595345",
        "ascending_node_longitude": "85.10271193498859",
        "orbital_period": "661.4086395121645",
        "perihelion_distance": "1.068058765116721",
        "perihelion_argument": "343.8624207137309",
        "aphelion_distance": "1.903226072369727",
        "perihelion_time": "2458821.563060892159",
        "mean_anomaly": "8.674362165959039",
        "mean_motion": ".5442928599564792",
        "equinox": "J2000",
        "orbit_class": {
            "orbit_class_type": "AMO",
            "orbit_class_description": "Near-Earth asteroid orbits similar to that of 1221 Amor",
            "orbit_class_range": "1.017 AU < q (perihelion) < 1.3 AU"
        }
    },
    "is_sentry_object": false
}